{
  "type": "FeatureCollection",
  "features": [
    {
      "type": "Feature",
      "properties": {
        "norad_id": 37238,
        "name": "INTELSAT 17 (IS-17)",
        "group": "intelsat",
        "lat": 0.019808913178713368,
        "lon": 25.063251739380117,
        "alt_km": 35792.14102474522,
        "timestamp": "2025-12-11T15:53:39.210016+00:00",
        "meta_object_name": "INTELSAT 17 (IS-17)",
        "meta_object_id": "2010-065B",
        "meta_epoch": "2025-12-11T05:15:47.176128",
        "meta_mean_motion": 1.00270924,
        "meta_eccentricity": 0.00024789,
        "meta_inclination": 0.0095,
        "meta_ra_of_asc_node": 288.2221,
        "meta_arg_of_pericenter": 333.0224,
        "meta_mean_anomaly": 323.8973,
        "meta_ephemeris_type": 0,
        "meta_classification_type": "U",
        "meta_norad_cat_id": 37238,
        "meta_element_set_no": 999,
        "meta_rev_at_epoch": 5136,
        "meta_bstar": 0,
        "meta_mean_motion_dot": 5e-08,
        "meta_mean_motion_ddot": 0,
        "tle_line1": "1 37238U 10065B   25345.21929602  .00000005  00000+0  00000+0 0  9998",
        "tle_line2": "2 37238   0.0095 288.2221 0002478 333.0224 323.8973  1.00270924 51367"
      },
      "geometry": {
        "type": "Point",
        "coordinates": [
          25.063251739380117,
          0.019808913178713368
        ]
      }
    },
    {
      "type": "Feature",
      "properties": {
        "norad_id": 37392,
        "name": "INTELSAT 28 (IS-28)",
        "group": "intelsat",
        "lat": -0.5162667722652226,
        "lon": -72.6537840654397,
        "alt_km": 35770.78128737674,
        "timestamp": "2025-12-11T15:53:39.210028+00:00",
        "meta_object_name": "INTELSAT 28 (IS-28)",
        "meta_object_id": "2011-016A",
        "meta_epoch": "2025-12-11T04:47:57.339744",
        "meta_mean_motion": 1.00272041,
        "meta_eccentricity": 0.00038978,
        "meta_inclination": 1.321,
        "meta_ra_of_asc_node": 85.0743,
        "meta_arg_of_pericenter": 180.7079,
        "meta_mean_anomaly": 214.6748,
        "meta_ephemeris_type": 0,
        "meta_classification_type": "U",
        "meta_norad_cat_id": 37392,
        "meta_element_set_no": 999,
        "meta_rev_at_epoch": 5140,
        "meta_bstar": 0,
        "meta_mean_motion_dot": -2.19e-06,
        "meta_mean_motion_ddot": 0,
        "tle_line1": "1 37392U 11016A   25345.19996921 -.00000219  00000+0  00000+0 0  9999",
        "tle_line2": "2 37392   1.3210  85.0743 0003897 180.7079 214.6748  1.00272041 51408"
      },
      "geometry": {
        "type": "Point",
        "coordinates": [
          -72.6537840654397,
          -0.5162667722652226
        ]
      }
    },
    {
      "type": "Feature",
      "properties": {
        "norad_id": 37834,
        "name": "INTELSAT 18 (IS-18)",
        "group": "intelsat",
        "lat": -0.0035913663370931857,
        "lon": 139.00611574790932,
        "alt_km": 35791.3342221544,
        "timestamp": "2025-12-11T15:53:39.210040+00:00",
        "meta_object_name": "INTELSAT 18 (IS-18)",
        "meta_object_id": "2011-056A",
        "meta_epoch": "2025-12-11T07:20:38.761152",
        "meta_mean_motion": 1.0027145,
        "meta_eccentricity": 0.00019179,
        "meta_inclination": 0.015,
        "meta_ra_of_asc_node": 294.8807,
        "meta_arg_of_pericenter": 333.9156,
        "meta_mean_anomaly": 101.6285,
        "meta_ephemeris_type": 0,
        "meta_classification_type": "U",
        "meta_norad_cat_id": 37834,
        "meta_element_set_no": 999,
        "meta_rev_at_epoch": 5192,
        "meta_bstar": 0,
        "meta_mean_motion_dot": 5.9e-07,
        "meta_mean_motion_ddot": 0,
        "tle_line1": "1 37834U 11056A   25345.30600418  .00000059  00000+0  00000+0 0  9991",
        "tle_line2": "2 37834   0.0150 294.8807 0001917 333.9156 101.6285  1.00271450 51929"
      },
      "geometry": {
        "type": "Point",
        "coordinates": [
          139.00611574790932,
          -0.0035913663370931857
        ]
      }
    },
    {
      "type": "Feature",
      "properties": {
        "norad_id": 38098,
        "name": "INTELSAT 22 (IS-22)",
        "group": "intelsat",
        "lat": 0.013944477113103084,
        "lon": 31.1665816796296,
        "alt_km": 35790.330040546505,
        "timestamp": "2025-12-11T15:53:39.210052+00:00",
        "meta_object_name": "INTELSAT 22 (IS-22)",
        "meta_object_id": "2012-011A",
        "meta_epoch": "2025-12-11T03:24:38.659968",
        "meta_mean_motion": 1.00270971,
        "meta_eccentricity": 0.00017234,
        "meta_inclination": 0.0031,
        "meta_ra_of_asc_node": 358.2448,
        "meta_arg_of_pericenter": 269.4542,
        "meta_mean_anomaly": 295.6919,
        "meta_ephemeris_type": 0,
        "meta_classification_type": "U",
        "meta_norad_cat_id": 38098,
        "meta_element_set_no": 999,
        "meta_rev_at_epoch": 530,
        "meta_bstar": 0,
        "meta_mean_motion_dot": -5.3e-07,
        "meta_mean_motion_ddot": 0,
        "tle_line1": "1 38098U 12011A   25345.14211412 -.00000053  00000+0  00000+0 0  9995",
        "tle_line2": "2 38098   0.0031 358.2448 0001723 269.4542 295.6919  1.00270971  5309"
      },
      "geometry": {
        "type": "Point",
        "coordinates": [
          31.1665816796296,
          0.013944477113103084
        ]
      }
    },
    {
      "type": "Feature",
      "properties": {
        "norad_id": 38356,
        "name": "INTELSAT 19 (IS-19)",
        "group": "intelsat",
        "lat": 0.015137191308863833,
        "lon": 125.01306330605547,
        "alt_km": 35797.74598427455,
        "timestamp": "2025-12-11T15:53:39.210064+00:00",
        "meta_object_name": "INTELSAT 19 (IS-19)",
        "meta_object_id": "2012-030A",
        "meta_epoch": "2025-12-11T05:17:38.741856",
        "meta_mean_motion": 1.00272125,
        "meta_eccentricity": 0.00034685,
        "meta_inclination": 0.0092,
        "meta_ra_of_asc_node": 339.326,
        "meta_arg_of_pericenter": 289.0605,
        "meta_mean_anomaly": 57.2169,
        "meta_ephemeris_type": 0,
        "meta_classification_type": "U",
        "meta_norad_cat_id": 38356,
        "meta_element_set_no": 999,
        "meta_rev_at_epoch": 4856,
        "meta_bstar": 0,
        "meta_mean_motion_dot": -5e-07,
        "meta_mean_motion_ddot": 0,
        "tle_line1": "1 38356U 12030A   25345.22058729 -.00000050  00000+0  00000+0 0  9999",
        "tle_line2": "2 38356   0.0092 339.3260 0003468 289.0605  57.2169  1.00272125 48568"
      },
      "geometry": {
        "type": "Point",
        "coordinates": [
          125.01306330605547,
          0.015137191308863833
        ]
      }
    },
    {
      "type": "Feature",
      "properties": {
        "norad_id": 38740,
        "name": "INTELSAT 20 (IS-20)",
        "group": "intelsat",
        "lat": 0.0014331759328728123,
        "lon": 27.526176852396308,
        "alt_km": 35796.98794206043,
        "timestamp": "2025-12-11T15:53:39.210075+00:00",
        "meta_object_name": "INTELSAT 20 (IS-20)",
        "meta_object_id": "2012-043A",
        "meta_epoch": "2025-12-11T02:03:38.556288",
        "meta_mean_motion": 1.00271347,
        "meta_eccentricity": 0.00027974,
        "meta_inclination": 0.0063,
        "meta_ra_of_asc_node": 85.143,
        "meta_arg_of_pericenter": 99.0256,
        "meta_mean_anomaly": 355.3044,
        "meta_ephemeris_type": 0,
        "meta_classification_type": "U",
        "meta_norad_cat_id": 38740,
        "meta_element_set_no": 999,
        "meta_rev_at_epoch": 4886,
        "meta_bstar": 0,
        "meta_mean_motion_dot": -1.9e-07,
        "meta_mean_motion_ddot": 0,
        "tle_line1": "1 38740U 12043A   25345.08586292 -.00000019  00000+0  00000+0 0  9990",
        "tle_line2": "2 38740   0.0063  85.1430 0002797  99.0256 355.3044  1.00271347 48865"
      },
      "geometry": {
        "type": "Point",
        "coordinates": [
          27.526176852396308,
          0.0014331759328728123
        ]
      }
    },
    {
      "type": "Feature",
      "properties": {
        "norad_id": 38749,
        "name": "INTELSAT 21 (IS-21)",
        "group": "intelsat",
        "lat": -0.020317958181704298,
        "lon": -98.97946122447814,
        "alt_km": 35777.9047065492,
        "timestamp": "2025-12-11T15:53:39.210087+00:00",
        "meta_object_name": "INTELSAT 21 (IS-21)",
        "meta_object_id": "2012-045A",
        "meta_epoch": "2025-12-11T04:40:28.057152",
        "meta_mean_motion": 1.00269962,
        "meta_eccentricity": 0.00020675,
        "meta_inclination": 0.0204,
        "meta_ra_of_asc_node": 58.4062,
        "meta_arg_of_pericenter": 200.7387,
        "meta_mean_anomaly": 193.1251,
        "meta_ephemeris_type": 0,
        "meta_classification_type": "U",
        "meta_norad_cat_id": 38749,
        "meta_element_set_no": 999,
        "meta_rev_at_epoch": 4864,
        "meta_bstar": 0,
        "meta_mean_motion_dot": -2.79e-06,
        "meta_mean_motion_ddot": 0,
        "tle_line1": "1 38749U 12045A   25345.19476918 -.00000279  00000+0  00000+0 0  9994",
        "tle_line2": "2 38749   0.0204  58.4062 0002067 200.7387 193.1251  1.00269962 48645"
      },
      "geometry": {
        "type": "Point",
        "coordinates": [
          -98.97946122447814,
          -0.020317958181704298
        ]
      }
    }
  ]
}